FENGYUN 1C DEB          
1 32227U 99025CVZ 17345.72916875  .00000754  00000-0  10066-3 0  9998
2 32227  99.4706 260.0430 0144433 206.7642 208.4459 14.76733282559963
